{
  "type": "FeatureCollection",
  "features": [
    {
      "type": "Feature",
      "properties": {
        "norad_id": 37846,
        "name": "GSAT0101 (GALILEO-PFM)",
        "group": "galileo",
        "lat": 33.04374208124065,
        "lon": 11.828132349207646,
        "alt_km": 23217.638399810032,
        "timestamp": "2025-12-10T14:53:37.356019+00:00",
        "meta_object_name": "GSAT0101 (GALILEO-PFM)",
        "meta_object_id": "2011-060A",
        "meta_epoch": "2025-12-08T19:04:30.018432",
        "meta_mean_motion": 1.70475601,
        "meta_eccentricity": 0.00029509,
        "meta_inclination": 57.0536,
        "meta_ra_of_asc_node": 346.9268,
        "meta_arg_of_pericenter": 313.0699,
        "meta_mean_anomaly": 46.9223,
        "meta_ephemeris_type": 0,
        "meta_classification_type": "U",
        "meta_norad_cat_id": 37846,
        "meta_element_set_no": 999,
        "meta_rev_at_epoch": 8787,
        "meta_bstar": 0,
        "meta_mean_motion_dot": -8.7e-07,
        "meta_mean_motion_ddot": 0,
        "tle_line1": "1 37846U 11060A   25342.79479188 -.00000087  00000+0  00000+0 0  9999",
        "tle_line2": "2 37846  57.0536 346.9268 0002950 313.0699  46.9223  1.70475601 87878"
      },
      "geometry": {
        "type": "Point",
        "coordinates": [
          11.828132349207646,
          33.04374208124065
        ]
      }
    },
    {
      "type": "Feature",
      "properties": {
        "norad_id": 37847,
        "name": "GSAT0102 (GALILEO-FM2)",
        "group": "galileo",
        "lat": 56.82358631997746,
        "lon": 69.58951955193623,
        "alt_km": 23226.285231375434,
        "timestamp": "2025-12-10T14:53:37.356040+00:00",
        "meta_object_name": "GSAT0102 (GALILEO-FM2)",
        "meta_object_id": "2011-060B",
        "meta_epoch": "2025-12-09T14:02:59.398080",
        "meta_mean_motion": 1.7047581,
        "meta_eccentricity": 0.0004922,
        "meta_inclination": 57.0542,
        "meta_ra_of_asc_node": 346.9059,
        "meta_arg_of_pericenter": 308.4092,
        "meta_mean_anomaly": 222.2657,
        "meta_ephemeris_type": 0,
        "meta_classification_type": "U",
        "meta_norad_cat_id": 37847,
        "meta_element_set_no": 999,
        "meta_rev_at_epoch": 8789,
        "meta_bstar": 0,
        "meta_mean_motion_dot": -8.7e-07,
        "meta_mean_motion_ddot": 0,
        "tle_line1": "1 37847U 11060B   25343.58540970 -.00000087  00000+0  00000+0 0  9996",
        "tle_line2": "2 37847  57.0542 346.9059 0004922 308.4092 222.2657  1.70475810 87894"
      },
      "geometry": {
        "type": "Point",
        "coordinates": [
          69.58951955193623,
          56.82358631997746
        ]
      }
    },
    {
      "type": "Feature",
      "properties": {
        "norad_id": 38857,
        "name": "GSAT0103 (GALILEO-FM3)",
        "group": "galileo",
        "lat": 13.079649466357536,
        "lon": 115.83396329666867,
        "alt_km": 23223.052380278037,
        "timestamp": "2025-12-10T14:53:37.356052+00:00",
        "meta_object_name": "GSAT0103 (GALILEO-FM3)",
        "meta_object_id": "2012-055A",
        "meta_epoch": "2025-12-08T20:02:14.787168",
        "meta_mean_motion": 1.70473288,
        "meta_eccentricity": 0.00025504,
        "meta_inclination": 55.6903,
        "meta_ra_of_asc_node": 106.7738,
        "meta_arg_of_pericenter": 268.6106,
        "meta_mean_anomaly": 91.3235,
        "meta_ephemeris_type": 0,
        "meta_classification_type": "U",
        "meta_norad_cat_id": 38857,
        "meta_element_set_no": 999,
        "meta_rev_at_epoch": 8176,
        "meta_bstar": 0,
        "meta_mean_motion_dot": 1.1e-07,
        "meta_mean_motion_ddot": 0,
        "tle_line1": "1 38857U 12055A   25342.83489337  .00000011  00000+0  00000+0 0  9995",
        "tle_line2": "2 38857  55.6903 106.7738 0002550 268.6106  91.3235  1.70473288 81769"
      },
      "geometry": {
        "type": "Point",
        "coordinates": [
          115.83396329666867,
          13.079649466357536
        ]
      }
    },
    {
      "type": "Feature",
      "properties": {
        "norad_id": 40128,
        "name": "GSAT0201 (GALILEO 5)",
        "group": "galileo",
        "lat": -47.99418602356815,
        "lon": -153.0034594151937,
        "alt_km": 22338.223306428223,
        "timestamp": "2025-12-10T14:53:37.356065+00:00",
        "meta_object_name": "GSAT0201 (GALILEO 5)",
        "meta_object_id": "2014-050A",
        "meta_epoch": "2025-12-07T12:54:32.900256",
        "meta_mean_motion": 1.85519488,
        "meta_eccentricity": 0.16474216,
        "meta_inclination": 49.0828,
        "meta_ra_of_asc_node": 281.2757,
        "meta_arg_of_pericenter": 172.085,
        "meta_mean_anomaly": 190.9173,
        "meta_ephemeris_type": 0,
        "meta_classification_type": "U",
        "meta_norad_cat_id": 40128,
        "meta_element_set_no": 999,
        "meta_rev_at_epoch": 7476,
        "meta_bstar": 0,
        "meta_mean_motion_dot": -5.9e-07,
        "meta_mean_motion_ddot": 0,
        "tle_line1": "1 40128U 14050A   25341.53788079 -.00000059  00000+0  00000+0 0  9990",
        "tle_line2": "2 40128  49.0828 281.2757 1647421 172.0850 190.9173  1.85519488 74761"
      },
      "geometry": {
        "type": "Point",
        "coordinates": [
          -153.0034594151937,
          -47.99418602356815
        ]
      }
    },
    {
      "type": "Feature",
      "properties": {
        "norad_id": 40129,
        "name": "GSAT0202 (GALILEO 6)",
        "group": "galileo",
        "lat": 45.837507795074934,
        "lon": -16.718673861642728,
        "alt_km": 21740.007366408718,
        "timestamp": "2025-12-10T14:53:37.356075+00:00",
        "meta_object_name": "GSAT0202 (GALILEO 6)",
        "meta_object_id": "2014-050B",
        "meta_epoch": "2025-12-08T20:55:50.636640",
        "meta_mean_motion": 1.85520286,
        "meta_eccentricity": 0.16482545,
        "meta_inclination": 49.097,
        "meta_ra_of_asc_node": 280.3049,
        "meta_arg_of_pericenter": 172.8865,
        "meta_mean_anomaly": 189.8198,
        "meta_ephemeris_type": 0,
        "meta_classification_type": "U",
        "meta_norad_cat_id": 40129,
        "meta_element_set_no": 999,
        "meta_rev_at_epoch": 7695,
        "meta_bstar": 0,
        "meta_mean_motion_dot": -6.8e-07,
        "meta_mean_motion_ddot": 0,
        "tle_line1": "1 40129U 14050B   25342.87211385 -.00000068  00000+0  00000+0 0  9990",
        "tle_line2": "2 40129  49.0970 280.3049 1648254 172.8865 189.8198  1.85520286 76958"
      },
      "geometry": {
        "type": "Point",
        "coordinates": [
          -16.718673861642728,
          45.837507795074934
        ]
      }
    },
    {
      "type": "Feature",
      "properties": {
        "norad_id": 40544,
        "name": "GSAT0203 (GALILEO 7)",
        "group": "galileo",
        "lat": 2.844602908297111,
        "lon": 164.8748634388291,
        "alt_km": 23223.308313186724,
        "timestamp": "2025-12-10T14:53:37.356086+00:00",
        "meta_object_name": "GSAT0203 (GALILEO 7)",
        "meta_object_id": "2015-017A",
        "meta_epoch": "2025-12-07T23:40:17.785344",
        "meta_mean_motion": 1.70475803,
        "meta_eccentricity": 0.00065197,
        "meta_inclination": 56.8473,
        "meta_ra_of_asc_node": 346.8097,
        "meta_arg_of_pericenter": 270.7442,
        "meta_mean_anomaly": 89.1988,
        "meta_ephemeris_type": 0,
        "meta_classification_type": "U",
        "meta_norad_cat_id": 40544,
        "meta_element_set_no": 999,
        "meta_rev_at_epoch": 6594,
        "meta_bstar": 0,
        "meta_mean_motion_dot": -8.6e-07,
        "meta_mean_motion_ddot": 0,
        "tle_line1": "1 40544U 15017A   25341.98631696 -.00000086  00000+0  00000+0 0  9997",
        "tle_line2": "2 40544  56.8473 346.8097 0006519 270.7442  89.1988  1.70475803 65948"
      },
      "geometry": {
        "type": "Point",
        "coordinates": [
          164.8748634388291,
          2.844602908297111
        ]
      }
    },
    {
      "type": "Feature",
      "properties": {
        "norad_id": 40545,
        "name": "GSAT0204 (GALILEO 8)",
        "group": "galileo",
        "lat": 16.564358164678588,
        "lon": -2.0381721683236744,
        "alt_km": 23228.8845321881,
        "timestamp": "2025-12-10T14:53:37.356106+00:00",
        "meta_object_name": "GSAT0204 (GALILEO 8)",
        "meta_object_id": "2015-017B",
        "meta_epoch": "2025-12-08T05:48:09.490464",
        "meta_mean_motion": 1.70475483,
        "meta_eccentricity": 0.00062708,
        "meta_inclination": 56.8542,
        "meta_ra_of_asc_node": 346.8204,
        "meta_arg_of_pericenter": 261.7403,
        "meta_mean_anomaly": 98.2059,
        "meta_ephemeris_type": 0,
        "meta_classification_type": "U",
        "meta_norad_cat_id": 40545,
        "meta_element_set_no": 999,
        "meta_rev_at_epoch": 2899,
        "meta_bstar": 0,
        "meta_mean_motion_dot": -8.6e-07,
        "meta_mean_motion_ddot": 0,
        "tle_line1": "1 40545U 15017B   25342.24177651 -.00000086  00000+0  00000+0 0  9994",
        "tle_line2": "2 40545  56.8542 346.8204 0006270 261.7403  98.2059  1.70475483 28995"
      },
      "geometry": {
        "type": "Point",
        "coordinates": [
          -2.0381721683236744,
          16.564358164678588
        ]
      }
    }
  ]
}